KUIPER-00175            
1 67135U 25301C   26063.83336806  .00027964  00000+0  93591-3 0  9994
2 67135  51.8749  88.3366 0002087  34.1378  26.2049 15.30748223  5884
KUIPER-00179            
1 67136U 25301D   26063.83336806 -.01956246  00000+0 -10872+0 0  9999
2 67136  51.8806  89.3740 0002248  78.9738 198.2701 15.16802620  5893
KUIPER-00181            
1 67137U 25301E   26063.83336806 -.00011694  00000+0 -16397-2 0  9999
2 67137  51.9011  98.4548 0001884  85.8854 219.1274 14.76402609  5257
KUIPER-00183            
1 67138U 25301F   26063.83336806  .00025041  00000+0  82288-3 0  9992
2 67138  51.8657  89.3392 0015049  35.3443 197.1481 15.31302086  5795
KUIPER-00184            
1 67139U 25301G   26063.37591468  .00024235  00000+0  66398-3 0  9997
2 67139  51.8613  91.2998 0012425  31.9354 328.2383 15.37107174 13198
KUIPER-00186            
1 67140U 25301H   26063.78341988  .00009818  00000+0  13149-2 0  9999
2 67140  51.9013  99.8070 0000886 100.0481 260.0581 14.79934669 12832
KUIPER-00187            
1 67141U 25301J   26063.51048930  .00005832  00000+0  79240-3 0  9999
2 67141  51.9020 103.5250 0000704  88.2001 271.9042 14.79984593 12753
KUIPER-00188            
1 67142U 25301K   26063.47870706  .00050843  00000+0  13457-2 0  9998
2 67142  51.8695  90.5443 0010096  24.5585 335.5881 15.37830369 12939
KUIPER-00191            
1 67143U 25301L   26063.83336806 -.00023665  00000+0 -27983-2 0  9990
2 67143  51.9001  94.7197 0007556  45.2171 318.7734 14.83968092  4826
KUIPER-00196            
1 67144U 25301M   26063.37009910  .00048457  00000+0  12544-2 0  9994
2 67144  51.8703  90.5955 0003719   4.1518 355.9499 15.38576245 12924
KUIPER-00204            
1 67145U 25301N   26063.81335019  .00032772  00000+0  12656-2 0  9993
2 67145  51.8850  93.4231 0002899 338.7783  21.3078 15.25968431 13033
KUIPER-00210            
1 67146U 25301P   26063.83336806 -.00021750  00000+0 -25393-2 0  9999
2 67146  51.8991  94.7242 0009688  59.0365 104.3680 14.84428012  5906
KUIPER-00221            
1 67147U 25301Q   26063.54426965  .00005200  00000+0  70979-3 0  9995
2 67147  51.9004 103.3589 0000588  97.2131 262.8898 14.79979401 12769
KUIPER-00232            
1 67148U 25301R   26063.83336806 -.01775469  00000+0 -97268-1 0  9994
2 67148  51.8807  89.2191 0003391 140.2347 155.4422 15.16957780  5214
KUIPER-00241            
1 67149U 25301S   26063.83336806 -.00008521  00000+0 -10862-2 0  9998
2 67149  51.9013  97.0862 0001413  96.2749 336.3546 14.80081560  5611
KUIPER-00245            
1 67150U 25301T   26063.33896293 -.00005802  00000+0 -73263-3 0  9990
2 67150  51.9022 106.7878 0000561  60.8051 299.2968 14.79938794 12693
KUIPER-00246            
1 67151U 25301U   26063.83336806  .00014319  00000+0  94274-3 0  9991
2 67151  51.8867  90.6064 0004958  52.7918 342.2404 15.07744213  5941
