[{"OBJECT_NAME":"KUIPER-00175","OBJECT_ID":"2025-301C","EPOCH":"2026-03-04T20:00:03.000384","MEAN_MOTION":15.30748223,"ECCENTRICITY":0.0002087,"INCLINATION":51.8749,"RA_OF_ASC_NODE":88.3366,"ARG_OF_PERICENTER":34.1378,"MEAN_ANOMALY":26.2049,"EPHEMERIS_TYPE":0,"CLASSIFICATION_TYPE":"U","NORAD_CAT_ID":67135,"ELEMENT_SET_NO":999,"REV_AT_EPOCH":588,"BSTAR":0.00093591,"MEAN_MOTION_DOT":0.00027964,"MEAN_MOTION_DDOT":0},{"OBJECT_NAME":"KUIPER-00179","OBJECT_ID":"2025-301D","EPOCH":"2026-03-04T20:00:03.000384","MEAN_MOTION":15.1680262,"ECCENTRICITY":0.0002248,"INCLINATION":51.8806,"RA_OF_ASC_NODE":89.374,"ARG_OF_PERICENTER":78.9738,"MEAN_ANOMALY":198.2701,"EPHEMERIS_TYPE":0,"CLASSIFICATION_TYPE":"U","NORAD_CAT_ID":67136,"ELEMENT_SET_NO":999,"REV_AT_EPOCH":589,"BSTAR":-0.10872,"MEAN_MOTION_DOT":-0.01956246,"MEAN_MOTION_DDOT":0},{"OBJECT_NAME":"KUIPER-00181","OBJECT_ID":"2025-301E","EPOCH":"2026-03-04T20:00:03.000384","MEAN_MOTION":14.76402609,"ECCENTRICITY":0.0001884,"INCLINATION":51.9011,"RA_OF_ASC_NODE":98.4548,"ARG_OF_PERICENTER":85.8854,"MEAN_ANOMALY":219.1274,"EPHEMERIS_TYPE":0,"CLASSIFICATION_TYPE":"U","NORAD_CAT_ID":67137,"ELEMENT_SET_NO":999,"REV_AT_EPOCH":525,"BSTAR":-0.0016397,"MEAN_MOTION_DOT":-0.00011694,"MEAN_MOTION_DDOT":0},{"OBJECT_NAME":"KUIPER-00183","OBJECT_ID":"2025-301F","EPOCH":"2026-03-04T20:00:03.000384","MEAN_MOTION":15.31302086,"ECCENTRICITY":0.0015049,"INCLINATION":51.8657,"RA_OF_ASC_NODE":89.3392,"ARG_OF_PERICENTER":35.3443,"MEAN_ANOMALY":197.1481,"EPHEMERIS_TYPE":0,"CLASSIFICATION_TYPE":"U","NORAD_CAT_ID":67138,"ELEMENT_SET_NO":999,"REV_AT_EPOCH":579,"BSTAR":0.00082288,"MEAN_MOTION_DOT":0.00025041,"MEAN_MOTION_DDOT":0},{"OBJECT_NAME":"KUIPER-00184","OBJECT_ID":"2025-301G","EPOCH":"2026-03-04T09:01:19.028352","MEAN_MOTION":15.37107174,"ECCENTRICITY":0.00124253,"INCLINATION":51.8613,"RA_OF_ASC_NODE":91.2998,"ARG_OF_PERICENTER":31.9354,"MEAN_ANOMALY":328.2383,"EPHEMERIS_TYPE":0,"CLASSIFICATION_TYPE":"U","NORAD_CAT_ID":67139,"ELEMENT_SET_NO":999,"REV_AT_EPOCH":1319,"BSTAR":0.00066397602,"MEAN_MOTION_DOT":0.00024235,"MEAN_MOTION_DDOT":0},{"OBJECT_NAME":"KUIPER-00186","OBJECT_ID":"2025-301H","EPOCH":"2026-03-04T18:48:07.477632","MEAN_MOTION":14.79934669,"ECCENTRICITY":8.86e-5,"INCLINATION":51.9013,"RA_OF_ASC_NODE":99.807,"ARG_OF_PERICENTER":100.0481,"MEAN_ANOMALY":260.0581,"EPHEMERIS_TYPE":0,"CLASSIFICATION_TYPE":"U","NORAD_CAT_ID":67140,"ELEMENT_SET_NO":999,"REV_AT_EPOCH":1283,"BSTAR":0.0013149,"MEAN_MOTION_DOT":9.818e-5,"MEAN_MOTION_DDOT":0},{"OBJECT_NAME":"KUIPER-00187","OBJECT_ID":"2025-301J","EPOCH":"2026-03-04T12:15:06.275520","MEAN_MOTION":14.79984593,"ECCENTRICITY":7.04e-5,"INCLINATION":51.902,"RA_OF_ASC_NODE":103.525,"ARG_OF_PERICENTER":88.2001,"MEAN_ANOMALY":271.9042,"EPHEMERIS_TYPE":0,"CLASSIFICATION_TYPE":"U","NORAD_CAT_ID":67141,"ELEMENT_SET_NO":999,"REV_AT_EPOCH":1275,"BSTAR":0.0007924,"MEAN_MOTION_DOT":5.832e-5,"MEAN_MOTION_DDOT":0},{"OBJECT_NAME":"KUIPER-00188","OBJECT_ID":"2025-301K","EPOCH":"2026-03-04T11:29:20.289984","MEAN_MOTION":15.37830369,"ECCENTRICITY":0.00100964,"INCLINATION":51.8695,"RA_OF_ASC_NODE":90.5443,"ARG_OF_PERICENTER":24.5585,"MEAN_ANOMALY":335.5881,"EPHEMERIS_TYPE":0,"CLASSIFICATION_TYPE":"U","NORAD_CAT_ID":67142,"ELEMENT_SET_NO":999,"REV_AT_EPOCH":1293,"BSTAR":0.0013457381,"MEAN_MOTION_DOT":0.00050843,"MEAN_MOTION_DDOT":0},{"OBJECT_NAME":"KUIPER-00191","OBJECT_ID":"2025-301L","EPOCH":"2026-03-04T20:00:03.000384","MEAN_MOTION":14.83968092,"ECCENTRICITY":0.0007556,"INCLINATION":51.9001,"RA_OF_ASC_NODE":94.7197,"ARG_OF_PERICENTER":45.2171,"MEAN_ANOMALY":318.7734,"EPHEMERIS_TYPE":0,"CLASSIFICATION_TYPE":"U","NORAD_CAT_ID":67143,"ELEMENT_SET_NO":999,"REV_AT_EPOCH":482,"BSTAR":-0.0027983,"MEAN_MOTION_DOT":-0.00023665,"MEAN_MOTION_DDOT":0},{"OBJECT_NAME":"KUIPER-00196","OBJECT_ID":"2025-301M","EPOCH":"2026-03-04T08:52:56.562240","MEAN_MOTION":15.38576245,"ECCENTRICITY":0.00037199,"INCLINATION":51.8703,"RA_OF_ASC_NODE":90.5955,"ARG_OF_PERICENTER":4.1518,"MEAN_ANOMALY":355.9499,"EPHEMERIS_TYPE":0,"CLASSIFICATION_TYPE":"U","NORAD_CAT_ID":67144,"ELEMENT_SET_NO":999,"REV_AT_EPOCH":1292,"BSTAR":0.0012544259,"MEAN_MOTION_DOT":0.00048457,"MEAN_MOTION_DDOT":0},{"OBJECT_NAME":"KUIPER-00204","OBJECT_ID":"2025-301N","EPOCH":"2026-03-04T19:31:13.456416","MEAN_MOTION":15.25968431,"ECCENTRICITY":0.0002899,"INCLINATION":51.885,"RA_OF_ASC_NODE":93.4231,"ARG_OF_PERICENTER":338.7783,"MEAN_ANOMALY":21.3078,"EPHEMERIS_TYPE":0,"CLASSIFICATION_TYPE":"U","NORAD_CAT_ID":67145,"ELEMENT_SET_NO":999,"REV_AT_EPOCH":1303,"BSTAR":0.0012656,"MEAN_MOTION_DOT":0.00032772,"MEAN_MOTION_DDOT":0},{"OBJECT_NAME":"KUIPER-00210","OBJECT_ID":"2025-301P","EPOCH":"2026-03-04T20:00:03.000384","MEAN_MOTION":14.84428012,"ECCENTRICITY":0.0009688,"INCLINATION":51.8991,"RA_OF_ASC_NODE":94.7242,"ARG_OF_PERICENTER":59.0365,"MEAN_ANOMALY":104.368,"EPHEMERIS_TYPE":0,"CLASSIFICATION_TYPE":"U","NORAD_CAT_ID":67146,"ELEMENT_SET_NO":999,"REV_AT_EPOCH":590,"BSTAR":-0.0025393,"MEAN_MOTION_DOT":-0.0002175,"MEAN_MOTION_DDOT":0},{"OBJECT_NAME":"KUIPER-00221","OBJECT_ID":"2025-301Q","EPOCH":"2026-03-04T13:03:44.897760","MEAN_MOTION":14.79979401,"ECCENTRICITY":5.88e-5,"INCLINATION":51.9004,"RA_OF_ASC_NODE":103.3589,"ARG_OF_PERICENTER":97.2131,"MEAN_ANOMALY":262.8898,"EPHEMERIS_TYPE":0,"CLASSIFICATION_TYPE":"U","NORAD_CAT_ID":67147,"ELEMENT_SET_NO":999,"REV_AT_EPOCH":1276,"BSTAR":0.00070979,"MEAN_MOTION_DOT":5.2e-5,"MEAN_MOTION_DDOT":0},{"OBJECT_NAME":"KUIPER-00232","OBJECT_ID":"2025-301R","EPOCH":"2026-03-04T20:00:03.000384","MEAN_MOTION":15.1695778,"ECCENTRICITY":0.0003391,"INCLINATION":51.8807,"RA_OF_ASC_NODE":89.2191,"ARG_OF_PERICENTER":140.2347,"MEAN_ANOMALY":155.4422,"EPHEMERIS_TYPE":0,"CLASSIFICATION_TYPE":"U","NORAD_CAT_ID":67148,"ELEMENT_SET_NO":999,"REV_AT_EPOCH":521,"BSTAR":-0.097268,"MEAN_MOTION_DOT":-0.01775469,"MEAN_MOTION_DDOT":0},{"OBJECT_NAME":"KUIPER-00241","OBJECT_ID":"2025-301S","EPOCH":"2026-03-04T20:00:03.000384","MEAN_MOTION":14.8008156,"ECCENTRICITY":0.0001413,"INCLINATION":51.9013,"RA_OF_ASC_NODE":97.0862,"ARG_OF_PERICENTER":96.2749,"MEAN_ANOMALY":336.3546,"EPHEMERIS_TYPE":0,"CLASSIFICATION_TYPE":"U","NORAD_CAT_ID":67149,"ELEMENT_SET_NO":999,"REV_AT_EPOCH":561,"BSTAR":-0.0010862,"MEAN_MOTION_DOT":-8.521e-5,"MEAN_MOTION_DDOT":0},{"OBJECT_NAME":"KUIPER-00245","OBJECT_ID":"2025-301T","EPOCH":"2026-03-04T08:08:06.397152","MEAN_MOTION":14.79938794,"ECCENTRICITY":5.616e-5,"INCLINATION":51.9022,"RA_OF_ASC_NODE":106.7878,"ARG_OF_PERICENTER":60.8051,"MEAN_ANOMALY":299.2968,"EPHEMERIS_TYPE":0,"CLASSIFICATION_TYPE":"U","NORAD_CAT_ID":67150,"ELEMENT_SET_NO":999,"REV_AT_EPOCH":1269,"BSTAR":-0.00073263228,"MEAN_MOTION_DOT":-5.802e-5,"MEAN_MOTION_DDOT":0},{"OBJECT_NAME":"KUIPER-00246","OBJECT_ID":"2025-301U","EPOCH":"2026-03-04T20:00:03.000384","MEAN_MOTION":15.07744213,"ECCENTRICITY":0.0004958,"INCLINATION":51.8867,"RA_OF_ASC_NODE":90.6064,"ARG_OF_PERICENTER":52.7918,"MEAN_ANOMALY":342.2404,"EPHEMERIS_TYPE":0,"CLASSIFICATION_TYPE":"U","NORAD_CAT_ID":67151,"ELEMENT_SET_NO":999,"REV_AT_EPOCH":594,"BSTAR":0.00094274,"MEAN_MOTION_DOT":0.00014319,"MEAN_MOTION_DDOT":0}]
